STARLINK-2401           
1 47818U 21018AH  23243.91668981  .00021020  00000+0  14902-2 0  9994
2 47818  53.0538  70.1346 0001290  80.8999 131.8490 15.04750201  5826
STARLINK-2402           
1 47819U 21018AJ  23244.51616991  .00002010  00000+0  15385-3 0  9991
2 47819  53.0529  62.4305 0002413  72.4569 287.6684 15.06398461137575
STARLINK-2403           
1 47820U 21018AK  23244.36507872  .00008635  00000+0  59763-3 0  9990
2 47820  53.0499  73.1208 0002438  84.5034 275.6233 15.06414111137402
STARLINK-2406           
1 47821U 21018AL  23244.21119026 -.00001854  00000+0 -10558-3 0  9992
2 47821  53.0546  63.8163 0001190  96.6002 263.5122 15.06406619137525
STARLINK-2407           
1 47822U 21018AM  23244.55215358 -.00043304  00000+0 -29116-2 0  9990
2 47822  53.0560  72.2791 0001673  50.5787 309.5350 15.06328593137436
STARLINK-2408           
1 47823U 21018AN  23244.50143135 -.00000394  00000+0 -75385-5 0  9993
2 47823  53.0548  62.4952 0001769  80.7546 279.3643 15.06398214137567
STARLINK-2409           
1 47824U 21018AP  23244.49132493  .00010256  00000+0  70658-3 0  9999
2 47824  53.0517  62.5489 0002311  92.1374 267.9880 15.06390081137560
STARLINK-2410           
1 47825U 21018AQ  23243.91262055  .00015885  00000+0  10820-2 0  9991
2 47825  53.0537  65.1480 0001100  71.9011 288.2098 15.06431671137479
STARLINK-2411           
1 47826U 21018AR  23244.50606624  .00007580  00000+0  52708-3 0  9997
2 47826  53.0489  62.4786 0002858  97.6083 262.5230 15.06410278137563
STARLINK-2413           
1 47827U 21018AS  23244.48857365  .00015363  00000+0  10470-2 0  9992
2 47827  53.0521  52.8068 0001922  72.8643 287.2556 15.06435228137708
STARLINK-2415           
1 47828U 21018AT  23244.55675435 -.00007818  00000+0 -50685-3 0  9998
2 47828  53.0520  72.2576 0000929  67.4616 292.6472 15.06375635137436
STARLINK-2416           
1 47829U 21018AU  23244.24343444 -.00009100  00000+0 -59294-3 0  9998
2 47829  53.0544  73.6625 0001154  97.0948 263.0172 15.06393365137384
STARLINK-2419           
1 47830U 21018AV  23243.50993758  .00010976  00000+0  75433-3 0  9991
2 47830  53.0544  76.9572 0001361 101.7535 258.3607 15.06412729137272
STARLINK-2420           
1 47831U 21018AW  23244.43925073  .00003796  00000+0  27360-3 0  9998
2 47831  53.0498  47.7823 0002364  80.3615 279.7641 15.06404999137760
STARLINK-2422           
1 47832U 21018AX  23244.52818053 -.00010769  00000+0 -70556-3 0  9993
2 47832  53.0537  62.3865 0001153  73.8347 286.2769 15.06379460137575
STARLINK-2423           
1 47833U 21018AY  23244.48763575 -.00001888  00000+0 -10791-3 0  9994
2 47833  53.0538  62.5661 0001308  82.6260 277.4878 15.06387950137562
STARLINK-2424           
1 47834U 21018AZ  23244.49869064  .00008433  00000+0  58421-3 0  9999
2 47834  53.0469  62.5191 0002588  75.9306 284.1970 15.06407819137566
STARLINK-2425           
1 47835U 21018BA  23244.52589589  .00012952  00000+0  88657-3 0  9990
2 47835  53.0561  67.5268 0001708  69.5858 290.5314 15.06408571137495
STARLINK-2426           
1 47836U 21018BB  23243.91999706  .00015429  00000+0  10513-2 0  9996
2 47836  53.0555  65.2030 0001052  92.1890 267.9219 15.06440605137475
STARLINK-2427           
1 47837U 21018BC  23243.86285743  .00019105  00000+0  12967-2 0  9990
2 47837  53.0544  45.3711 0001389  85.6236 274.4912 15.06436628138095
STARLINK-2429           
1 47838U 21018BD  23244.20749977  .00010407  00000+0  71627-3 0  9999
2 47838  53.0542  63.8232 0001381  82.4430 277.6716 15.06413623137524
STARLINK-2431           
1 47839U 21018BE  23244.43510509 -.00007154  00000+0 -46204-3 0  9992
2 47839  53.0548  32.8101 0000780  58.6407 301.4658 15.06386313137989
STARLINK-2432           
1 47840U 21018BF  23243.84811809  .00015169  00000+0  10341-2 0  9990
2 47840  53.0542  45.4393 0000922  63.7546 296.3538 15.06433933138089
STARLINK-2433           
1 47841U 21018BG  23244.44156792  .00007419  00000+0  51653-3 0  9992
2 47841  53.0533  42.7734 0001218  67.3169 292.7949 15.06392643137839
STARLINK-2434           
1 47842U 21018BH  23244.49408691  .00001582  00000+0  12505-3 0  9994
2 47842  53.0527  72.5361 0001192  86.4180 273.6945 15.06398071137426
STARLINK-2435           
1 47843U 21018BJ  23244.53324767  .00002910  00000+0  21409-3 0  9990
2 47843  53.0524  67.3649 0001060  56.8988 303.2103 15.06407347137508
STARLINK-2446           
1 47844U 21018BK  23244.33281909  .00010573  00000+0  72735-3 0  9991
2 47844  53.0533  63.2682 0002311  91.7933 268.3321 15.06415533137542
STARLINK-2453           
1 47845U 21018BL  23244.21856060 -.00019419  00000+0 -12895-2 0  9995
2 47845  53.0535  63.7762 0001821 101.5077 258.6117 15.06364583137524
STARLINK-2456           
1 47846U 21018BM  23244.47930707  .00014458  00000+0  98690-3 0  9999
2 47846  53.0544  62.5965 0002463  91.8246 268.3026 15.06422319137562
STARLINK-2258           
1 47860U 21021A   23244.28582921  .00003246  00000+0  23673-3 0  9991
2 47860  53.0444  93.4738 0001639  94.2314 265.8862 15.06397153136842
STARLINK-2280           
1 47861U 21021B   23243.97205083  .00012105  00000+0  82959-3 0  9994
2 47861  53.0521  79.8795 0001348  99.1259 260.9882 15.06423784137006
STARLINK-2291           
1 47862U 21021C   23243.62051909  .00007535  00000+0  52411-3 0  9994
2 47862  53.0534  76.4585 0001164  92.1243 267.9879 15.06407404137502
STARLINK-2293           
1 47863U 21021D   23243.97714877  .00006294  00000+0  44093-3 0  9991
2 47863  53.0522  84.8644 0003466  67.5450 292.5906 15.06408780136931
STARLINK-2304           
1 47864U 21021E   23244.55305860 -.00005816  00000+0 -37192-3 0  9998
2 47864  53.0540  72.3197 0001674  88.7863 271.3317 15.06391152137159
STARLINK-2310           
1 47865U 21021F   23244.28211186  .00013132  00000+0  89843-3 0  9994
2 47865  53.0523  83.4798 0000640  98.4096 261.6965 15.06416370136991
STARLINK-2320           
1 47866U 21021G   23244.28675096  .00005821  00000+0  40931-3 0  9990
2 47866  53.0533  83.4704 0000973  83.1152 276.9948 15.06401334136997
STARLINK-2321           
1 47867U 21021H   23243.94857855  .00027306  00000+0  18427-2 0  9994
2 47867  53.0533  74.9888 0004211  62.0599 298.0816 15.06441112137084
STARLINK-2323           
1 47868U 21021J   23244.47288438 -.00007935  00000+0 -51455-3 0  9996
2 47868  53.0554  22.6378 0001088  79.8562 280.2549 15.06388815137869
STARLINK-2324           
1 47869U 21021K   23244.54200607 -.00013083  00000+0 -86161-3 0  9990
2 47869  53.0516  72.3240 0002161  75.9225 284.2004 15.06371205137173
STARLINK-2326           
1 47870U 21021L   23244.29457897  .00003990  00000+0  28665-3 0  9998
2 47870  53.0526  98.4362 0001352  87.2607 272.8537 15.06397507136773
STARLINK-2327           
1 47871U 21021M   23244.14023906  .00019718  00000+0  13378-2 0  9992
2 47871  53.0521  74.1348 0002450  36.7998 323.3158 15.06431096137118
STARLINK-2329           
1 47873U 21021P   23244.51988489  .00004295  00000+0  30706-3 0  9990
2 47873  53.0496  72.4213 0000817  78.2922 281.8158 15.06394867137163
STARLINK-2330           
1 47874U 21021Q   23244.39687089  .00001188  00000+0  98658-4 0  9998
2 47874  53.0568  27.9848 0001894  81.1502 278.9702 15.06399865137778
STARLINK-2331           
1 47875U 21021R   23244.24619522  .00018230  00000+0  12383-2 0  9995
2 47875  53.0528  83.6613 0001549  26.2515 333.8552 15.06438806136980
STARLINK-2332           
1 47876U 21021S   23243.70436933  .00008540  00000+0  59127-3 0  9990
2 47876  53.0525  86.0840 0001237  88.5376 271.5755 15.06413480137386
STARLINK-2333           
1 47877U 21021T   23244.51527675  .00020167  00000+0  13678-2 0  9994
2 47877  53.0504  82.4474 0003206  82.4911 277.6443 15.06428152137027
STARLINK-2335           
1 47878U 21021U   23244.26093643  .00003653  00000+0  26381-3 0  9997
2 47878  53.0545  83.5819 0000253 301.8390  58.2574 15.06420531136992
STARLINK-2336           
1 47879U 21021V   23243.99233450  .00010735  00000+0  73845-3 0  9995
2 47879  53.0496  99.7972 0001021 225.0571 135.0335 15.06402226136731
STARLINK-2337           
1 47880U 21021W   23244.29688496  .00007648  00000+0  53169-3 0  9991
2 47880  53.0507  93.4248 0000886  97.9730 262.1360 15.06402988136852
STARLINK-2339           
1 47881U 21021X   23244.32268476  .00000472  00000+0  50596-4 0  9998
2 47881  53.0524  93.3073 0001643  81.8619 278.2557 15.06405317136852
STARLINK-2340           
1 47882U 21021Y   23243.96607550  .00000414  00000+0  46690-4 0  9994
2 47882  53.0560  84.9111 0001771  89.8625 270.2567 15.06402718136944
STARLINK-2342           
1 47883U 21021Z   23244.53508774  .00012759  00000+0  87375-3 0  9996
2 47883  53.0455  87.3537 0002454  76.8581 283.2681 15.06406523136953
STARLINK-2343           
1 47884U 21021AA  23244.31901982  .00016158  00000+0  11010-2 0  9990
2 47884  53.0538  93.3233 0001331  86.5130 273.6011 15.06404899136849
STARLINK-2344           
1 47885U 21021AB  23244.31301347  .00008009  00000+0  55582-3 0  9999
2 47885  53.0526  98.3524 0001189  94.7745 265.3379 15.06407318136775
STARLINK-2345           
1 47886U 21021AC  23244.48615527  .00379293  00000+0  47131-2 0  9992
2 47886  53.0518  51.5067 0011897 277.8360  82.1301 15.58126159137458
STARLINK-2346           
1 47887U 21021AD  23244.07204632  .00015415  00000+0  10508-2 0  9990
2 47887  53.0523  94.4402 0002483  58.7345 301.3887 15.06423017136814
STARLINK-2348           
1 47888U 21021AE  23244.29411810  .00007326  00000+0  51023-3 0  9993
2 47888  53.0538  83.4380 0001014  77.1162 282.9940 15.06399320136997
STARLINK-2349           
1 47889U 21021AF  23243.97344343  .00015495  00000+0  10560-2 0  9990
2 47889  53.0531  84.8805 0000839  42.0797 318.0256 15.06428578136941
STARLINK-2351           
1 47891U 21021AH  23244.04624753  .00007276  00000+0  50679-3 0  9992
2 47891  53.0528  94.5465 0001367  85.4025 274.7120 15.06405937136810
